COSMOS 2433 (720)       
1 32275U 07052A   24164.05709324 -.00000061  00000+0  00000+0 0  9996
2 32275  65.9375 340.5567 0001325 193.5377 166.4686  2.13104222129435
COSMOS 2432 (719)       
1 32276U 07052B   24164.82596593 -.00000058  00000+0  00000+0 0  9990
2 32276  65.9523 340.6448 0008561 337.4998 198.6265  2.13103378129449
COSMOS 2434 (721)       
1 32393U 07065A   24164.27683101  .00000019  00000+0  00000+0 0  9991
2 32393  64.3193 216.7412 0000391  83.7422 337.0766  2.13103277128111
COSMOS 2436 (723)       
1 32395U 07065C   24164.09755505  .00000019  00000+0  00000+0 0  9991
2 32395  64.3280 216.8118 0015919 354.1941  64.2894  2.13103007128063
COSMOS 2456 (730)       
1 36111U 09070A   24164.74358872 -.00000001  00000+0  00000+0 0  9999
2 36111  64.6109  96.1093 0005014 317.1344 256.5525  2.13099184112811
COSMOS 2457 (733)       
1 36112U 09070B   24163.60961421  .00000000  00000+0  00000+0 0  9992
2 36112  64.5948  96.0070 0002798 167.7653  28.9906  2.13101356112790
COSMOS 2460 (732)       
1 36402U 10007C   24164.38234994 -.00000059  00000+0  00000+0 0  9995
2 36402  65.7941 339.2126 0002194  84.5256 336.8878  2.13106410111162
COSMOS 2476 (744)       
1 37867U 11064A   24164.29163375  .00000004  00000+0  00000+0 0  9998
2 37867  64.8844  97.7580 0022921 239.9536 258.7903  2.13101721 98106
COSMOS 2477 (745)       
1 37868U 11064B   24163.96649275  .00000004  00000+0  00000+0 0  9990
2 37868  64.8913  97.8416 0020170 241.4354 185.9200  2.13103214 98091
COSMOS 2475 (743)       
1 37869U 11064C   24164.10971910  .00000004  00000+0  00000+0 0  9992
2 37869  64.8985  97.8514 0025321 255.7319 239.9252  2.13102035 98101
COSMOS 2485 (747)       
1 39155U 13019A   24163.11410683  .00000004  00000+0  00000+0 0  9999
2 39155  65.0419  98.3811 0023195 236.0126 123.7574  2.13101915 86590
COSMOS 2492 (754)       
1 39620U 14012A   24164.00805536 -.00000061  00000+0  00000+0 0  9998
2 39620  65.6760 338.8030 0011309 329.6085  30.3336  2.13103299 79570
COSMOS 2500 (755)       
1 40001U 14032A   24163.71824971 -.00000062  00000+0  00000+0 0  9997
2 40001  65.6134 338.6183 0006021 183.5304 176.4726  2.13106049 77785
COSMOS 2501 (702K)      
1 40315U 14075A   24163.97141559  .00000019  00000+0  00000+0 0  9995
2 40315  63.6210 215.8578 0020738 210.4982 149.4558  2.13101553 74182
COSMOS 2514 (751)       
1 41330U 16008A   24163.95373414 -.00000061  00000+0  00000+0 0  9994
2 41330  65.4083 338.1211 0009493 199.7073 160.2630  2.13102768 64951
COSMOS 2522 (752)       
1 42939U 17055A   24164.26347041  .00000019  00000+0  00000+0 0  9997
2 42939  64.0820 216.9355 0009808 239.9569 120.0205  2.13101998 52313
COSMOS 2527 (756)       
1 43508U 18053A   24164.22245933  .00000006  00000+0  00000+0 0  9998
2 43508  65.2024  98.4947 0008314 241.1074 118.8026  2.13102419 46613
COSMOS 2529 (757)       
1 43687U 18086A   24163.38300276  .00000017  00000+0  00000+0 0  9992
2 43687  64.2975 217.4768 0011146 259.0156 100.9357  2.13102143 43604
COSMOS 2534 (758)       
1 44299U 19030A   24164.27212510  .00000018  00000+0  00000+0 0  9995
2 44299  64.3705 217.3995 0013018 279.0207 177.2672  2.13102415 39262
COSMOS 2544 (759)       
1 44850U 19088A   24164.16648259  .00000006  00000+0  00000+0 0  9999
2 44850  65.1888  98.3338 0013805 261.2174  98.6197  2.13102198 35053
COSMOS 2545 (760)       
1 45358U 20018A   24164.36347195 -.00000061  00000+0  00000+0 0  9997
2 45358  64.7478 338.1220 0007339 238.1769 121.7593  2.13102723 33005
COSMOS 2547 (705K)      
1 46805U 20075A   24164.55081969  .00000020  00000+0  00000+0 0  9997
2 46805  64.5994 217.0301 0008584 240.7559 119.2327  2.13103191 28256
COSMOS 2557 (706K)      
1 52984U 22075A   24161.90014827 -.00000072  00000+0  00000+0 0  9997
2 52984  64.6746 340.3386 0010554 282.1296  77.7587  2.13102189 15009
COSMOS 2559 (707K)      
1 54031U 22130A   24163.72006394 -.00000065  00000+0  00000+0 0  9998
2 54031  64.6457 340.3928 0005460 212.8764 147.0987  2.13101536 13014
COSMOS 2564 (761)       
1 54377U 22161A   24164.38047278  .00000019  00000+0  00000+0 0  9992
2 54377  64.7406 217.1397 0011099 223.4552 136.5320  2.13102203 11970
COSMOS 2569 (703K)      
1 57517U 23114A   24163.92841710  .00000004  00000+0  00000+0 0  9996
2 57517  64.9155  97.4930 0011736 297.5378  62.3367  2.13103837  6593
